CYGFM07                 
1 41890U 16078G   26103.90003058  .00016737  00000+0  22518-3 0  9995
2 41890  34.9456 296.4554 0007906 308.0601  51.9409 15.56887060518963
CYGFM03                 
1 41891U 16078H   26103.87102404  .00016491  00000+0  22189-3 0  9998
2 41891  34.9410 298.6091 0007111 296.7368  63.2628 15.56893426518934
FENGYUN 3D              
1 43010U 17072A   26103.94449744 -.00000293  00000+0 -11682-3 0  9998
2 43010  99.0079  77.2233 0000743 190.0146 170.1015 14.19724825435878
NOAA 20 (JPSS-1)        
1 43013U 17073A   26103.92989949  .00000036  00000+0  37920-4 0  9993
2 43013  98.7732  43.9759 0002142  89.5931 270.5490 14.19545263435357
GOES 17                 
1 43226U 18022A   26103.92722549 -.00000178  00000+0  00000+0 0  9997
2 43226   0.7716  86.6236 0000862 269.6322  90.1718  1.00272058 29773
FENGYUN 2H              
1 43491U 18050A   26103.96059229 -.00000122  00000+0  00000+0 0  9993
2 43491   2.8650  79.8038 0001377 154.0338  33.2349  1.00276120 28790
METOP-C                 
1 43689U 18087A   26103.87448978  .00000060  00000+0  47438-4 0  9996
2 43689  98.6697 164.6377 0001425  52.7665 307.3642 14.21508760385694
GEO-KOMPSAT-2A          
1 43823U 18100A   26102.86570258  .00000000  00000+0  00000+0 0  9990
2 43823   0.0264  92.7933 0002036 337.3051 210.8876  1.00266693 26979
METEOR-M2 2             
1 44387U 19038A   26103.96901112 -.00000318  00000+0 -11778-3 0  9998
2 44387  98.9124  90.3176 0001159 149.4265 210.6981 14.24346664352157
ARKTIKA-M 1             
1 47719U 21016A   26103.19470855 -.00000026  00000+0  00000+0 0  9996
2 47719  63.2228  66.9808 7262076 269.6394  15.0355  2.00612100 37482
FENGYUN 3E              
1 49008U 21062A   26104.00618138 -.00000195  00000+0 -71075-4 0  9992
2 49008  98.7515 108.1279 0000501 293.5606  66.5518 14.19897576247475
GOES 18                 
1 51850U 22021A   26103.90550071  .00000100  00000+0  00000+0 0  9994
2 51850   0.0310  48.4464 0000658  42.8428 299.7785  1.00271927  5946
NOAA 21 (JPSS-2)        
1 54234U 22150A   26103.89372485  .00000014  00000+0  27537-4 0  9998
2 54234  98.7594  43.7653 0002368  44.8293 315.3074 14.19561428177424
METEOSAT-12 (MTG-I1)    
1 54743U 22170C   26103.87357859 -.00000001  00000+0  00000+0 0  9999
2 54743   0.7517  27.8310 0001353 300.1471 188.3771  1.00275821 12334
TIANMU-1 03             
1 55973U 23039A   26103.92170942  .00009517  00000+0  20054-3 0  9997
2 55973  97.5208 275.4747 0002309 350.8510   9.2696 15.45476743170909
TIANMU-1 04             
1 55974U 23039B   26103.93462906  .00009793  00000+0  20257-3 0  9994
2 55974  97.5140 274.6416 0002791 341.3303  18.7843 15.46011488170911
TIANMU-1 05             
1 55975U 23039C   26103.89967564  .00009175  00000+0  19382-3 0  9991
2 55975  97.5187 275.0903 0002591  19.1928 340.9418 15.45415388170880
TIANMU-1 06             
1 55976U 23039D   26103.93461903  .00009477  00000+0  19656-3 0  9992
2 55976  97.5196 275.6997 0002721   9.6629 350.4671 15.45943024170911
FENGYUN 3G              
1 56232U 23055A   26103.95764825  .00016792  00000+0  26057-3 0  9998
2 56232  49.9936 317.1641 0003530  84.9495 275.1876 15.54054231170029
METEOR-M2 3             
1 57166U 23091A   26103.94889147  .00000002  00000+0  19612-4 0  9996
2 57166  98.6142 160.2231 0003996  14.8783 345.2513 14.24041356145373
TIANMU-1 07             
1 57399U 23101A   26103.91885115  .00003597  00000+0  12888-3 0  9993
2 57399  97.2661 156.0739 0003416  58.5694 301.5880 15.29370379151826
TIANMU-1 08             
1 57400U 23101B   26103.55889344  .00000159  00000+0  80867-5 0  9999
2 57400  97.2646 155.5008 0004068  31.0748 329.0732 15.29445711151762
TIANMU-1 09             
1 57401U 23101C   26103.93544237  .00003706  00000+0  13245-3 0  9996
2 57401  97.2607 155.3197 0003967  54.8174 305.3437 15.29429182151820
TIANMU-1 10             
1 57402U 23101D   26103.70626361  .00003938  00000+0  14067-3 0  9991
2 57402  97.2687 156.0793 0004798  35.5861 324.5699 15.29410207151787
FENGYUN 3F              
1 57490U 23111A   26103.92100556  .00000027  00000+0  33334-4 0  9991
2 57490  98.6866 175.1173 0000762  99.3328 260.7935 14.19927715139746
ARKTIKA-M 2             
1 58584U 23198A   26103.45619951  .00000196  00000+0  00000+0 0  9999
2 58584  63.2183 161.5632 6885750 267.6360  18.8482  2.00607994 17026
TIANMU-1 11             
1 58645U 23205A   26104.01597608  .00003236  00000+0  12726-3 0  9993
2 58645  97.3502 126.5974 0007717 221.4482 138.6172 15.26344410127733
TIANMU-1 12             
1 58646U 23205B   26103.91881240  .00003499  00000+0  13767-3 0  9997
2 58646  97.3491 126.2719 0006539 199.9074 160.1910 15.26285325127708
TIANMU-1 13             
1 58647U 23205C   26104.01409086  .00003414  00000+0  13417-3 0  9993
2 58647  97.3518 126.6200 0007454 181.2461 178.8761 15.26337675127716
TIANMU-1 14             
1 58648U 23205D   26103.99925521  .00003427  00000+0  13477-3 0  9997
2 58648  97.3453 125.8424 0008006 186.7829 173.3303 15.26310506127712
TIANMU-1 19             
1 58660U 23208A   26103.91104959  .00005055  00000+0  17359-3 0  9992
2 58660  97.4420 219.9620 0005429 169.4506 190.6850 15.30577518127497
TIANMU-1 20             
1 58661U 23208B   26103.93343821  .00005436  00000+0  17970-3 0  9990
2 58661  97.4361 220.5538 0007300 181.6954 178.4264 15.31764772127585
TIANMU-1 21             
1 58662U 23208C   26103.94956021  .00006156  00000+0  19006-3 0  9996
2 58662  97.4418 222.9826 0007376 176.5402 183.5893 15.33902064127719
TIANMU-1 22             
1 58663U 23208D   26103.93814550  .00004839  00000+0  16857-3 0  9993
2 58663  97.4416 219.9759 0003605 186.4744 173.6450 15.30137107127500
TIANMU-1 15             
1 58700U 24004A   26103.93101889  .00003614  00000+0  14195-3 0  9997
2 58700  97.4678 290.1371 0006413 204.0499 156.0441 15.26341698125978
TIANMU-1 16             
1 58701U 24004B   26103.97922532  .00003519  00000+0  13814-3 0  9999
2 58701  97.4622 289.4838 0004829 203.4294 156.6725 15.26380289125983
TIANMU-1 17             
1 58702U 24004C   26103.96203843  .00003545  00000+0  13976-3 0  9994
2 58702  97.4652 289.9333 0004599 209.4572 150.6408 15.26229524125976
TIANMU-1 18             
1 58703U 24004D   26103.94731580  .00003598  00000+0  14135-3 0  9993
2 58703  97.4669 290.1382 0003488 197.9511 162.1604 15.26346103125972
INSAT-3DS               
1 58990U 24033A   26103.88987199 -.00000152  00000+0  00000+0 0  9991
2 58990   0.0602  84.6471 0001923 299.2705 220.5946  1.00272566 46423
METEOR-M2 4             
1 59051U 24039A   26103.96103622 -.00000007  00000+0  16693-4 0  9995
2 59051  98.6959  64.0858 0007155   5.2916 354.8336 14.22422686110135
GOES 19                 
1 60133U 24119A   26103.93008550 -.00000245  00000+0  00000+0 0  9992
2 60133   0.0159  39.9445 0000653  37.2906  24.5116  1.00272681  6322
FENGYUN 3H              
1 65815U 25219A   26103.56459835  .00000027  00000+0  33002-4 0  9991
2 65815  98.6728  45.6051 0000648  85.8032 274.3219 14.19941816 28217
OSCAR 7 (AO-7)          
1 07530U 74089B   26103.77267182 -.00000027  00000+0  12067-3 0  9993
2 07530 101.9944 116.3401 0011878 253.5120 287.5368 12.53697056352445
PHASE 3B (AO-10)        
1 14129U 83058B   26102.81319713 -.00000295  00000+0  00000+0 0  9990
2 14129  25.8997 230.4827 6034279  97.6141 330.5213  2.05874162294146
UOSAT 2 (UO-11)         
1 14781U 84021B   26103.84967011  .00000994  00000+0  10712-3 0  9999
2 14781  97.8005  70.1724 0008685  45.1690 315.0233 14.90629114247541
LUSAT (LO-19)           
1 20442U 90005G   26103.50598712  .00000090  00000+0  48733-4 0  9992
2 20442  98.8902 123.5152 0012259  40.4067 319.8025 14.34102723893127
EYESAT A (AO-27)        
1 22825U 93061C   26103.45971415  .00000053  00000+0  37385-4 0  9993
2 22825  98.6919 170.8843 0007279 293.2171  66.8245 14.30924749697741
ITAMSAT (IO-26)         
1 22826U 93061D   26103.94769866  .00000059  00000+0  39223-4 0  9992
2 22826  98.6867 171.2834 0007728 272.3973  87.6325 14.31350059698127
RADIO ROSTO (RS15)      
1 23439U 94085A   26103.81639815 -.00000054  00000+0 -31356-3 0  9991
2 23439  64.8189  47.3190 0154015  15.5614 344.9970 11.27583835288648
JAS-2 (FO-29)           
1 24278U 96046B   26103.83875699 -.00000018  00000+0  21030-4 0  9994
2 24278  98.5322 321.4943 0348814 263.4132  92.7196 13.53271091464469
TECHSAT 1B (GO-32)      
1 25397U 98043D   26103.51078617  .00000039  00000+0  37238-4 0  9995
2 25397  99.0057  94.6453 0002163  63.7631 296.3769 14.24415573442128
ISS (ZARYA)             
1 25544U 98067A   26103.81207643  .00004629  00000+0  92443-4 0  9999
2 25544  51.6318 258.6924 0006490 309.0204  51.0206 15.48899060561779
PCSAT (NO-44)           
1 26931U 01043C   26103.27235909  .00000095  00000+0  66340-4 0  9994
2 26931  67.0513  52.1669 0006698 264.3866  95.6472 14.31930561281151
SAUDISAT 1C (SO-50)     
1 27607U 02058C   26103.88916978  .00000519  00000+0  79302-4 0  9994
2 27607  64.5528 327.9012 0075531 274.1665  85.0811 14.82906861254920
CUTE-1 (CO-55)          
1 27844U 03031E   26103.75937084  .00000217  00000+0  11299-3 0  9991
2 27844  98.6766 113.1241 0009891  19.9623 340.1941 14.24295359182501
CUBESAT XI-IV (CO-57)   
1 27848U 03031J   26103.57507157  .00000185  00000+0  10026-3 0  9990
2 27848  98.6796 112.7063 0010141  37.9126 322.2765 14.23586039182189
MOZHAETS 4 (RS22)       
1 27939U 03042A   26103.98660903  .00001146  00000+0  18516-3 0  9997
2 27939  98.3466 286.5367 0012443 110.0195  45.5411 14.73354046206090
CUBESAT XI-V            
1 28895U 05043F   26103.37410129  .00001027  00000+0  16998-3 0  9998
2 28895  98.2901 257.6702 0015014  54.8636 305.3975 14.72461498 92217
CUTE-1.7+APD II (CO-65) 
1 32785U 08021C   26103.93329084  .00002964  00000+0  19245-3 0  9990
2 32785  97.8245  84.0618 0007250 241.8139 118.2357 15.08850850975504
